ONEWEB-0123             
1 47269U 20100M   26014.51267308 -.00000222  00000+0 -65310-3 0  9991
2 47269  87.8920  21.1918 0001857  91.8749 268.2592 13.12445155244538
ONEWEB-0124             
1 47270U 20100N   26014.50251059 -.00000344  00000+0 -99047-3 0  9997
2 47270  87.8919  21.1988 0001868  85.9709 274.1633 13.12444710244412
ONEWEB-0125             
1 47271U 20100P   26014.48049378  .00000103  00000+0  25148-3 0  9996
2 47271  87.8928  21.1692 0002047  87.9667 272.1696 13.12443767244474
ONEWEB-0126             
1 47272U 20100Q   26014.50097159 -.00000379  00000+0 -10890-2 0  9994
2 47272  87.8926  21.1883 0001721  94.1986 265.9339 13.12441815244541
ONEWEB-0127             
1 47273U 20100R   26014.54319324  .00000451  00000+0  12191-2 0  9995
2 47273  87.8923  21.1881 0001629  93.4504 266.6811 13.12441267244579
ONEWEB-0128             
1 47274U 20100S   26014.48896318 -.00000194  00000+0 -57326-3 0  9998
2 47274  87.8919  21.2141 0001556  81.3866 278.7439 13.12440861244581
ONEWEB-0129             
1 47275U 20100T   26014.54488404  .00000449  00000+0  12137-2 0  9990
2 47275  87.8929  21.1611 0001452 130.8370 229.2884 13.12442164244526
ONEWEB-0130             
1 47276U 20100U   26014.49573867 -.00000332  00000+0 -95733-3 0  9990
2 47276  87.8928  21.1648 0001633  90.0831 270.0485 13.12443829244481
ONEWEB-0131             
1 47277U 20100V   26014.49235983 -.00000255  00000+0 -74504-3 0  9992
2 47277  87.8928  21.1962 0001725  88.9367 271.1959 13.12441544244528
ONEWEB-0132             
1 47278U 20100W   26014.52113531  .00000020  00000+0  20470-4 0  9993
2 47278  87.8923  21.1911 0001712  87.3041 272.8284 13.12441611244429
ONEWEB-0133             
1 47279U 20100X   26014.53795369  .00000489  00000+0  13233-2 0  9996
2 47279  87.8924  21.1495 0001685  83.8843 276.2477 13.12443927244589
ONEWEB-0134             
1 47280U 20100Y   26014.50760496 -.00000345  00000+0 -99317-3 0  9999
2 47280  87.8927  21.1519 0001478  88.2905 271.8392 13.12444456244551
ONEWEB-0135             
1 47281U 20100Z   26014.55504975  .00000190  00000+0  49228-3 0  9995
2 47281  87.8926  21.1814 0001425  83.0780 277.0510 13.12441987244584
ONEWEB-0136             
1 47282U 20100AA  26014.49744150 -.00000339  00000+0 -97857-3 0  9998
2 47282  87.8928  21.1629 0001353  90.9866 269.1418 13.12442301244505
ONEWEB-0137             
1 47283U 20100AB  26014.45507560  .00000408  00000+0  10981-2 0  9994
2 47283  87.8928  21.1767 0001850  91.9857 268.1484 13.12444585244409
ONEWEB-0138             
1 47284U 20100AC  26014.50928939 -.00000320  00000+0 -92391-3 0  9999
2 47284  87.8931  21.1750 0001555  91.6060 268.5246 13.12444344244493
