[{"OBJECT_NAME":"ONEWEB-0123","OBJECT_ID":"2020-100M","EPOCH":"2026-01-14T12:18:14.954112","MEAN_MOTION":13.12445155,"ECCENTRICITY":0.00018572,"INCLINATION":87.892,"RA_OF_ASC_NODE":21.1918,"ARG_OF_PERICENTER":91.8749,"MEAN_ANOMALY":268.2592,"EPHEMERIS_TYPE":0,"CLASSIFICATION_TYPE":"U","NORAD_CAT_ID":47269,"ELEMENT_SET_NO":999,"REV_AT_EPOCH":24453,"BSTAR":-0.00065310432,"MEAN_MOTION_DOT":-2.22e-6,"MEAN_MOTION_DDOT":0},{"OBJECT_NAME":"ONEWEB-0124","OBJECT_ID":"2020-100N","EPOCH":"2026-01-14T12:03:36.914976","MEAN_MOTION":13.1244471,"ECCENTRICITY":0.00018683,"INCLINATION":87.8919,"RA_OF_ASC_NODE":21.1988,"ARG_OF_PERICENTER":85.9709,"MEAN_ANOMALY":274.1633,"EPHEMERIS_TYPE":0,"CLASSIFICATION_TYPE":"U","NORAD_CAT_ID":47270,"ELEMENT_SET_NO":999,"REV_AT_EPOCH":24441,"BSTAR":-0.00099047319,"MEAN_MOTION_DOT":-3.44e-6,"MEAN_MOTION_DDOT":0},{"OBJECT_NAME":"ONEWEB-0125","OBJECT_ID":"2020-100P","EPOCH":"2026-01-14T11:31:54.662592","MEAN_MOTION":13.12443767,"ECCENTRICITY":0.00020479,"INCLINATION":87.8928,"RA_OF_ASC_NODE":21.1692,"ARG_OF_PERICENTER":87.9667,"MEAN_ANOMALY":272.1696,"EPHEMERIS_TYPE":0,"CLASSIFICATION_TYPE":"U","NORAD_CAT_ID":47271,"ELEMENT_SET_NO":999,"REV_AT_EPOCH":24447,"BSTAR":0.00025147734,"MEAN_MOTION_DOT":1.03e-6,"MEAN_MOTION_DDOT":0},{"OBJECT_NAME":"ONEWEB-0126","OBJECT_ID":"2020-100Q","EPOCH":"2026-01-14T12:01:23.945376","MEAN_MOTION":13.12441815,"ECCENTRICITY":0.00017213,"INCLINATION":87.8926,"RA_OF_ASC_NODE":21.1883,"ARG_OF_PERICENTER":94.1986,"MEAN_ANOMALY":265.9339,"EPHEMERIS_TYPE":0,"CLASSIFICATION_TYPE":"U","NORAD_CAT_ID":47272,"ELEMENT_SET_NO":999,"REV_AT_EPOCH":24454,"BSTAR":-0.0010889801,"MEAN_MOTION_DOT":-3.79e-6,"MEAN_MOTION_DDOT":0},{"OBJECT_NAME":"ONEWEB-0127","OBJECT_ID":"2020-100R","EPOCH":"2026-01-14T13:02:11.895936","MEAN_MOTION":13.12441267,"ECCENTRICITY":0.00016298,"INCLINATION":87.8923,"RA_OF_ASC_NODE":21.1881,"ARG_OF_PERICENTER":93.4504,"MEAN_ANOMALY":266.6811,"EPHEMERIS_TYPE":0,"CLASSIFICATION_TYPE":"U","NORAD_CAT_ID":47273,"ELEMENT_SET_NO":999,"REV_AT_EPOCH":24457,"BSTAR":0.001219128,"MEAN_MOTION_DOT":4.51e-6,"MEAN_MOTION_DDOT":0},{"OBJECT_NAME":"ONEWEB-0128","OBJECT_ID":"2020-100S","EPOCH":"2026-01-14T11:44:06.418752","MEAN_MOTION":13.12440861,"ECCENTRICITY":0.00015564,"INCLINATION":87.8919,"RA_OF_ASC_NODE":21.2141,"ARG_OF_PERICENTER":81.3866,"MEAN_ANOMALY":278.7439,"EPHEMERIS_TYPE":0,"CLASSIFICATION_TYPE":"U","NORAD_CAT_ID":47274,"ELEMENT_SET_NO":999,"REV_AT_EPOCH":24458,"BSTAR":-0.00057326403,"MEAN_MOTION_DOT":-1.94e-6,"MEAN_MOTION_DDOT":0},{"OBJECT_NAME":"ONEWEB-0129","OBJECT_ID":"2020-100T","EPOCH":"2026-01-14T13:04:37.981056","MEAN_MOTION":13.12442164,"ECCENTRICITY":0.0001452,"INCLINATION":87.8929,"RA_OF_ASC_NODE":21.1611,"ARG_OF_PERICENTER":130.837,"MEAN_ANOMALY":229.2884,"EPHEMERIS_TYPE":0,"CLASSIFICATION_TYPE":"U","NORAD_CAT_ID":47275,"ELEMENT_SET_NO":999,"REV_AT_EPOCH":24452,"BSTAR":0.0012137046,"MEAN_MOTION_DOT":4.49e-6,"MEAN_MOTION_DDOT":0},{"OBJECT_NAME":"ONEWEB-0130","OBJECT_ID":"2020-100U","EPOCH":"2026-01-14T11:53:51.821088","MEAN_MOTION":13.12443829,"ECCENTRICITY":0.00016331,"INCLINATION":87.8928,"RA_OF_ASC_NODE":21.1648,"ARG_OF_PERICENTER":90.0831,"MEAN_ANOMALY":270.0485,"EPHEMERIS_TYPE":0,"CLASSIFICATION_TYPE":"U","NORAD_CAT_ID":47276,"ELEMENT_SET_NO":999,"REV_AT_EPOCH":24448,"BSTAR":-0.00095733231,"MEAN_MOTION_DOT":-3.32e-6,"MEAN_MOTION_DDOT":0},{"OBJECT_NAME":"ONEWEB-0131","OBJECT_ID":"2020-100V","EPOCH":"2026-01-14T11:48:59.889312","MEAN_MOTION":13.12441544,"ECCENTRICITY":0.00017251,"INCLINATION":87.8928,"RA_OF_ASC_NODE":21.1962,"ARG_OF_PERICENTER":88.9367,"MEAN_ANOMALY":271.1959,"EPHEMERIS_TYPE":0,"CLASSIFICATION_TYPE":"U","NORAD_CAT_ID":47277,"ELEMENT_SET_NO":999,"REV_AT_EPOCH":24452,"BSTAR":-0.00074503751,"MEAN_MOTION_DOT":-2.55e-6,"MEAN_MOTION_DDOT":0},{"OBJECT_NAME":"ONEWEB-0132","OBJECT_ID":"2020-100W","EPOCH":"2026-01-14T12:30:26.090784","MEAN_MOTION":13.12441611,"ECCENTRICITY":0.0001712,"INCLINATION":87.8923,"RA_OF_ASC_NODE":21.1911,"ARG_OF_PERICENTER":87.3041,"MEAN_ANOMALY":272.8284,"EPHEMERIS_TYPE":0,"CLASSIFICATION_TYPE":"U","NORAD_CAT_ID":47278,"ELEMENT_SET_NO":999,"REV_AT_EPOCH":24442,"BSTAR":2.0470365e-5,"MEAN_MOTION_DOT":2.0e-7,"MEAN_MOTION_DDOT":0},{"OBJECT_NAME":"ONEWEB-0133","OBJECT_ID":"2020-100X","EPOCH":"2026-01-14T12:54:39.198816","MEAN_MOTION":13.12443927,"ECCENTRICITY":0.00016851,"INCLINATION":87.8924,"RA_OF_ASC_NODE":21.1495,"ARG_OF_PERICENTER":83.8843,"MEAN_ANOMALY":276.2477,"EPHEMERIS_TYPE":0,"CLASSIFICATION_TYPE":"U","NORAD_CAT_ID":47279,"ELEMENT_SET_NO":999,"REV_AT_EPOCH":24458,"BSTAR":0.0013232508,"MEAN_MOTION_DOT":4.89e-6,"MEAN_MOTION_DDOT":0},{"OBJECT_NAME":"ONEWEB-0134","OBJECT_ID":"2020-100Y","EPOCH":"2026-01-14T12:10:57.068544","MEAN_MOTION":13.12444456,"ECCENTRICITY":0.00014786,"INCLINATION":87.8927,"RA_OF_ASC_NODE":21.1519,"ARG_OF_PERICENTER":88.2905,"MEAN_ANOMALY":271.8392,"EPHEMERIS_TYPE":0,"CLASSIFICATION_TYPE":"U","NORAD_CAT_ID":47280,"ELEMENT_SET_NO":999,"REV_AT_EPOCH":24455,"BSTAR":-0.00099316938,"MEAN_MOTION_DOT":-3.45e-6,"MEAN_MOTION_DDOT":0},{"OBJECT_NAME":"ONEWEB-0135","OBJECT_ID":"2020-100Z","EPOCH":"2026-01-14T13:19:16.298400","MEAN_MOTION":13.12441987,"ECCENTRICITY":0.0001425,"INCLINATION":87.8926,"RA_OF_ASC_NODE":21.1814,"ARG_OF_PERICENTER":83.078,"MEAN_ANOMALY":277.051,"EPHEMERIS_TYPE":0,"CLASSIFICATION_TYPE":"U","NORAD_CAT_ID":47281,"ELEMENT_SET_NO":999,"REV_AT_EPOCH":24458,"BSTAR":0.00049228023,"MEAN_MOTION_DOT":1.9e-6,"MEAN_MOTION_DDOT":0},{"OBJECT_NAME":"ONEWEB-0136","OBJECT_ID":"2020-100AA","EPOCH":"2026-01-14T11:56:18.945600","MEAN_MOTION":13.12442301,"ECCENTRICITY":0.00013538,"INCLINATION":87.8928,"RA_OF_ASC_NODE":21.1629,"ARG_OF_PERICENTER":90.9866,"MEAN_ANOMALY":269.1418,"EPHEMERIS_TYPE":0,"CLASSIFICATION_TYPE":"U","NORAD_CAT_ID":47282,"ELEMENT_SET_NO":999,"REV_AT_EPOCH":24450,"BSTAR":-0.0009785675,"MEAN_MOTION_DOT":-3.39e-6,"MEAN_MOTION_DDOT":0},{"OBJECT_NAME":"ONEWEB-0137","OBJECT_ID":"2020-100AB","EPOCH":"2026-01-14T10:55:18.531840","MEAN_MOTION":13.12444585,"ECCENTRICITY":0.00018502,"INCLINATION":87.8928,"RA_OF_ASC_NODE":21.1767,"ARG_OF_PERICENTER":91.9857,"MEAN_ANOMALY":268.1484,"EPHEMERIS_TYPE":0,"CLASSIFICATION_TYPE":"U","NORAD_CAT_ID":47283,"ELEMENT_SET_NO":999,"REV_AT_EPOCH":24440,"BSTAR":0.0010981262,"MEAN_MOTION_DOT":4.08e-6,"MEAN_MOTION_DDOT":0},{"OBJECT_NAME":"ONEWEB-0138","OBJECT_ID":"2020-100AC","EPOCH":"2026-01-14T12:13:22.603296","MEAN_MOTION":13.12444344,"ECCENTRICITY":0.00015551,"INCLINATION":87.8931,"RA_OF_ASC_NODE":21.175,"ARG_OF_PERICENTER":91.606,"MEAN_ANOMALY":268.5246,"EPHEMERIS_TYPE":0,"CLASSIFICATION_TYPE":"U","NORAD_CAT_ID":47284,"ELEMENT_SET_NO":999,"REV_AT_EPOCH":24449,"BSTAR":-0.00092390869,"MEAN_MOTION_DOT":-3.2e-6,"MEAN_MOTION_DDOT":0}]
